{
  "norad_id": 63073,
  "name": "STARLINK-33586",
  "history": [
    {
      "epoch": "2026-03-28T12:50:26.786400Z",
      "apogee_km": 483.9588788048204,
      "perigee_km": 482.05093246370143,
      "latitude_deg": 4.60490014776493e-05,
      "longitude_deg": 14.998551474608353,
      "height_km": 482.8047576019918,
      "semi_major_axis_km": 6861.14190563426,
      "eccentricity": 0.00013904,
      "inclination_deg": 43.0003,
      "raan_deg": 33.5642,
      "arg_perigee_deg": 268.6104,
      "mean_anomaly_deg": 91.4589,
      "mean_motion_rev_day": 15.27594758
    }
  ]
}