{"fetched_at":"2026-03-29T02:12:04Z","count":15717,"tles":[{"name":"STARLINK-33586","line1":"1 63073U 25035X   26087.53503225  .00035373  00000+0  12882-2 0  9995","line2":"2 63073  43.0003  33.5642 0001390 268.6104  91.4589 15.27594758 62696","category":"Starlink"}]}